[{"OBJECT_NAME":"AETHER-2","OBJECT_ID":"2023-174AV","EPOCH":"2026-03-09T17:13:49.792224","MEAN_MOTION":15.33264165,"ECCENTRICITY":0.00086301,"INCLINATION":97.3931,"RA_OF_ASC_NODE":151.9008,"ARG_OF_PERICENTER":139.5247,"MEAN_ANOMALY":220.6639,"EPHEMERIS_TYPE":0,"CLASSIFICATION_TYPE":"U","NORAD_CAT_ID":58299,"ELEMENT_SET_NO":999,"REV_AT_EPOCH":12998,"BSTAR":0.00026165949,"MEAN_MOTION_DOT":8.341e-5,"MEAN_MOTION_DDOT":0},{"OBJECT_NAME":"STARLINK-36206","OBJECT_ID":"2025-286F","EPOCH":"2026-03-09T22:55:07.465728","MEAN_MOTION":15.30216763,"ECCENTRICITY":0.00012308,"INCLINATION":53.1588,"RA_OF_ASC_NODE":357.4837,"ARG_OF_PERICENTER":80.3556,"MEAN_ANOMALY":279.7584,"EPHEMERIS_TYPE":0,"CLASSIFICATION_TYPE":"U","NORAD_CAT_ID":66930,"ELEMENT_SET_NO":999,"REV_AT_EPOCH":1544,"BSTAR":0.0010567062,"MEAN_MOTION_DOT":0.00031085,"MEAN_MOTION_DDOT":0}]
